0 COSMOS 2251 DEB
1 36370U 93036AYX 13281.48375014  .00061142  00000-0  39323-2 0  3391
2 36370 074.0621 332.0976 0041318 183.4629 176.6283 15.07377280212919
0 COSMOS 2251 DEB
1 36370U 93036AYX 13293.42200038  .00101801  00000-0  61652-2 0  3400
2 36370 074.0612 307.5519 0039371 152.5408 207.7877 15.09429406214712
